     2.100          NAVIGATION                              RINEX VERSION / TYPE
fic2rin                                 02/22/2015 00:34:03 PGM / RUN BY / DATE
                                                            END OF HEADER
11 15  2 21 16  0  0.0 -.559415202588D-03 -.261479726760D-11  .000000000000D+00
     .132000000000D+03 -.713750000000D+02  .658884588045D-08 -.311664446121D+00
    -.376999378204D-05  .156167274108D-01  .443495810032D-05  .515372447395D+04
     .576000000000D+06 -.156462192535D-06 -.519107628311D+00  .819563865662D-07
     .892582485975D+00  .260750000000D+03  .138348208546D+01 -.959075663637D-08
    -.230366738556D-09  .100000000000D+01  .183200000000D+04  .000000000000D+00
     .240000000000D+01  .000000000000D+00 -.121071934700D-07  .132000000000D+03
     .568806000000D+06  .400000000000D+01
12 15  2 21 16  0  0.0  .271113123745D-03  .295585778076D-11  .000000000000D+00
     .670000000000D+02  .367812500000D+02  .362336521342D-08 -.846236296178D+00
     .186264514923D-05  .531935587060D-02  .132247805595D-04  .515373671150D+04
     .576000000000D+06  .163912773132D-06 -.223193463523D+01  .521540641785D-07
     .989358661365D+00  .139250000000D+03  .515003427731D+00 -.765174729742D-08
     .240724312848D-09  .100000000000D+01  .183200000000D+04  .000000000000D+00
     .240000000000D+01  .000000000000D+00 -.125728547573D-07  .670000000000D+02
     .568806000000D+06  .400000000000D+01
13 15  2 21 16  0  0.0 -.902982428670D-04 -.352429196937D-11  .000000000000D+00
     .940000000000D+02  .385937500000D+02  .488484633060D-08  .371660802673D+00
     .198557972908D-05  .535406009294D-02  .361725687981D-05  .515367870903D+04
     .576000000000D+06 -.279396772385D-07  .202268673878D+01 -.726431608200D-07
     .974560662752D+00  .317812500000D+03  .206278428027D+01 -.853856995143D-08
     .117862052285D-09  .100000000000D+01  .183200000000D+04  .000000000000D+00
     .240000000000D+01  .000000000000D+00 -.116415321827D-07  .940000000000D+02
     .568806000000D+06  .400000000000D+01
14 15  2 21 16  0  0.0  .853389501572D-04 -.352429196937D-11  .000000000000D+00
     .970000000000D+02  .466875000000D+02  .485770234280D-08  .220145035707D+01
     .223517417908D-05  .774947414175D-02  .391341745853D-05  .515378128052D+04
     .576000000000D+06 -.260770320892D-07  .198870945405D+01 -.152736902237D-06
     .967052262043D+00  .305218750000D+03 -.197401352616D+01 -.833570435840D-08
     .131076888450D-09  .100000000000D+01  .183200000000D+04  .000000000000D+00
     .240000000000D+01  .000000000000D+00 -.931322574615D-08  .970000000000D+02
     .568806000000D+06  .400000000000D+01
15 15  2 21 16  0  0.0 -.233605504036D-03 -.227373675443D-11  .000000000000D+00
     .460000000000D+02  .688125000000D+02  .578131224343D-08  .156799861446D+01
     .379048287868D-05  .708396942355D-02  .410154461861D-05  .515359135246D+04
     .576000000000D+06 -.167638063431D-07  .186766905607D+01  .100582838058D-06
     .933677853167D+00  .287375000000D+03  .379501178993D+00 -.895072997669D-08
     .197508227010D-09  .100000000000D+01  .183200000000D+04  .000000000000D+00
     .240000000000D+01  .000000000000D+00 -.107102096081D-07  .460000000000D+02
     .568806000000D+06  .400000000000D+01
16 15  2 21 16  0  0.0 -.154349952936D-03  .329691829393D-11  .000000000000D+00
     .560000000000D+02  .451875000000D+02  .350693179207D-08 -.297855736642D+01
     .234134495258D-05  .810597056989D-02  .124126672745D-04  .515375837517D+04
     .576000000000D+06 -.372529029846D-07 -.221328883438D+01 -.465661287308D-07
     .989903621756D+00  .158125000000D+03  .241826144344D+00 -.750245536452D-08
     .322513433979D-09  .100000000000D+01  .183200000000D+04  .000000000000D+00
     .240000000000D+01  .000000000000D+00 -.102445483208D-07  .560000000000D+02
     .568806000000D+06  .400000000000D+01
17 15  2 21 16  0  0.0 -.157145317644D-03 -.204636307899D-11  .000000000000D+00
     .880000000000D+02  .266250000000D+02  .461162066394D-08  .237627911633D+01
     .134855508804D-05  .100882782135D-01  .339001417160D-05  .515371393204D+04
     .576000000000D+06  .100582838058D-06 -.118497285035D+01 -.180676579475D-06
     .971141330197D+00  .318375000000D+03 -.203018113205D+01 -.824534345165D-08
     .347871633107D-09  .100000000000D+01  .183200000000D+04  .000000000000D+00
     .240000000000D+01  .000000000000D+00 -.107102096081D-07  .880000000000D+02
     .568806000000D+06  .400000000000D+01
19 15  2 21 16  0  0.0 -.501388683915D-03 -.136424205266D-11  .000000000000D+00
     .106000000000D+03  .241250000000D+02  .481305762603D-08  .157637432664D+01
     .124238431454D-05  .109702437185D-01  .354647636414D-05  .515369522285D+04
     .576000000000D+06 -.124797224998D-06 -.113501435886D+01  .203028321266D-06
     .968236233828D+00  .315812500000D+03  .518955793506D+00 -.857214277844D-08
     .183936233111D-09  .100000000000D+01  .183200000000D+04  .000000000000D+00
     .240000000000D+01  .000000000000D+00 -.149011611938D-07  .106000000000D+03
     .568806000000D+06  .400000000000D+01
20 15  2 21 16  0  0.0  .292149372399D-03  .409272615798D-11  .000000000000D+00
     .640000000000D+02  .426250000000D+02  .510699844127D-08 -.275716626537D+01
     .204890966415D-05  .580515537877D-02  .129863619804D-04  .515577540588D+04
     .576000000000D+06  .100582838058D-06  .795078368400D+00 -.298023223877D-07
     .926623189667D+00  .108937500000D+03  .123538107065D+01 -.816998316974D-08
     .215723271454D-09  .100000000000D+01  .183200000000D+04  .000000000000D+00
     .240000000000D+01  .000000000000D+00 -.838190317154D-08  .640000000000D+02
     .568806000000D+06  .400000000000D+01
21 15  2 21 16  0  0.0 -.419064424932D-03 -.409272615798D-11  .000000000000D+00
     .490000000000D+02 -.826875000000D+02  .535343727787D-08 -.139061777121D+01
    -.387616455555D-05  .222675311379D-01  .708177685738D-05  .515360536194D+04
     .576000000000D+06  .428408384323D-06 -.195547318999D+00  .417232513428D-06
     .933869545175D+00  .221468750000D+03 -.194504715717D+01 -.852856953487D-08
    -.380015829185D-09  .100000000000D+01  .183200000000D+04  .000000000000D+00
     .240000000000D+01  .000000000000D+00 -.116415321827D-07  .490000000000D+02
     .568806000000D+06  .400000000000D+01
22 15  2 21 16  0  0.0  .320827122778D-03  .420641299570D-11  .000000000000D+00
     .900000000000D+01  .315000000000D+02  .518807324693D-08 -.288470093560D+01
     .152736902237D-05  .751339225098D-02  .129975378513D-04  .515370700073D+04
     .576000000000D+06  .102445483208D-06  .849094589409D+00 -.856816768646D-07
     .923214570061D+00  .107968750000D+03 -.206861506212D+01 -.819284126472D-08
     .252153360342D-09  .100000000000D+01  .183200000000D+04  .000000000000D+00
     .240000000000D+01  .000000000000D+00 -.176951289177D-07  .900000000000D+01
     .568806000000D+06  .400000000000D+01
23 15  2 21 16  0  0.0 -.903364270926D-04 -.261479726760D-11  .000000000000D+00
     .670000000000D+02  .567500000000D+02  .537915263473D-08  .113588240325D+01
     .321865081787D-05  .978972413577D-02  .366754829884D-05  .515365719795D+04
     .576000000000D+06  .223517417908D-07  .191847205798D+01  .141561031342D-06
     .948814194011D+00  .302531250000D+03 -.271244443691D+01 -.882858203159D-08
     .428589281035D-10  .100000000000D+01  .183200000000D+04  .000000000000D+00
     .240000000000D+01  .000000000000D+00 -.200234353542D-07  .670000000000D+02
     .568806000000D+06  .400000000000D+01
24 15  2 21 16  0  0.0 -.438280403614D-04 -.568434188608D-12  .000000000000D+00
     .390000000000D+02 -.856562500000D+02  .489163232755D-08  .452246917808D+00
    -.441633164883D-05  .308713852428D-02  .710971653461D-05  .515368262482D+04
     .576000000000D+06  .745058059692D-07  .294550527790D+01  .651925802231D-07
     .954591724177D+00  .234437500000D+03  .292181377750D+00 -.844249452093D-08
    -.666099174276D-09  .100000000000D+01  .183200000000D+04  .000000000000D+00
     .240000000000D+01  .000000000000D+00  .232830643654D-08  .390000000000D+02
     .568806000000D+06  .400000000000D+01
25 15  2 21 16  0  0.0 -.545848160982D-05 -.284217094304D-11  .000000000000D+00
     .140000000000D+02  .214687500000D+02  .372015495939D-08 -.154425164314D+01
     .113435089588D-05  .422917527612D-02  .133309513330D-04  .515372645187D+04
     .576000000000D+06  .819563865662D-07 -.227744808232D+01 -.113621354103D-06
     .977952536334D+00  .132187500000D+03  .660857827541D+00 -.763746098805D-08
     .207151485834D-09  .100000000000D+01  .183200000000D+04  .000000000000D+00
     .240000000000D+01  .000000000000D+00  .512227416039D-08  .140000000000D+02
     .568806000000D+06  .400000000000D+01
26 15  2 21 16  0  0.0  .447919592261D-05  .306954461848D-11  .000000000000D+00
     .136000000000D+03  .404062500000D+02  .489448958942D-08 -.225141338068D+01
     .223889946938D-05  .815198547207D-02  .315345823765D-05  .515370334816D+04
     .576000000000D+06  .782310962677D-07  .202405111177D+01  .838190317154D-07
     .970090163578D+00  .321218750000D+03 -.141112647097D+01 -.836499129261D-08
     .148934775160D-09  .100000000000D+01  .183200000000D+04  .000000000000D+00
     .340000000000D+01  .630000000000D+02 -.372529029846D-08  .136000000000D+03
     .568806000000D+06  .400000000000D+01
27 15  2 21 16  0  0.0  .530225224793D-04  .261479726760D-11  .000000000000D+00
     .590000000000D+02  .405312500000D+02  .476376985871D-08  .246963821206D+01
     .216066837311D-05  .202498049475D-02  .359490513802D-05  .515368470383D+04
     .576000000000D+06 -.875443220139D-07 -.123219471511D+01  .335276126862D-07
     .965988723525D+00  .310437500000D+03  .134286221492D+00 -.845142346428D-08
     .401445293236D-09  .100000000000D+01  .183200000000D+04  .000000000000D+00
     .240000000000D+01  .000000000000D+00  .186264514923D-08  .590000000000D+02
     .568806000000D+06  .400000000000D+01
